ONEWEB-0431             
1 51630U 22012J   26016.18261283  .00000213  00000+0  57390-3 0  9990
2 51630  87.8785  66.5597 0001266 114.2893 245.8367 13.10376645189437
ONEWEB-0434             
1 51631U 22012K   26016.15964533 -.00000634  00000+0 -18537-2 0  9994
2 51631  87.8767  66.5973 0002434  94.1537 265.9869 13.10372533189415
ONEWEB-0435             
1 51632U 22012L   26016.16780484 -.00000513  00000+0 -15050-2 0  9990
2 51632  87.8774  66.5860 0001522  88.7752 271.3549 13.10374742189403
ONEWEB-0436             
1 51633U 22012M   26016.03613383  .00000056  00000+0  11210-3 0  9995
2 51633  87.9093  36.0764 0001589  87.6445 272.4869 13.17650686193643
ONEWEB-0438             
1 51634U 22012N   26016.15120947 -.00000349  00000+0 -10368-2 0  9997
2 51634  87.8767  66.5902 0002008 101.4115 258.7238 13.10371156189433
ONEWEB-0439             
1 51635U 22012P   26016.15452639 -.00000472  00000+0 -13879-2 0  9991
2 51635  87.8771  66.5789 0001821  96.7593 263.3742 13.10371298189417
ONEWEB-0442             
1 51636U 22012Q   26016.33227724 -.00000040  00000+0 -13722-3 0  9996
2 51636  87.9081  36.0620 0002379  99.7832 260.3569 13.17656352193678
ONEWEB-0443             
1 51637U 22012R   26016.27575981  .00000066  00000+0  13744-3 0  9991
2 51637  87.9080  36.0769 0002056  86.4512 273.6855 13.17650110193718
ONEWEB-0444             
1 51638U 22012S   26016.14457365 -.00000104  00000+0 -33439-3 0  9991
2 51638  87.8770  66.5790 0001783  96.7987 263.3343 13.10370655189429
ONEWEB-0445             
1 51639U 22012T   26016.16615115 -.00001563  00000+0 -45164-2 0  9990
2 51639  87.8789  66.5481 0001986 107.1668 252.9677 13.10364577189436
ONEWEB-0446             
1 51640U 22012U   26016.21927053  .00000046  00000+0  95853-4 0  9990
2 51640  87.8769  66.5806 0001786 103.2472 256.8855 13.10370271189423
ONEWEB-0448             
1 51641U 22012V   26016.14788771 -.00000326  00000+0 -97165-3 0  9995
2 51641  87.8770  66.5943 0001787  98.3278 261.8052 13.10370802189387
ONEWEB-0449             
1 51642U 22012W   26016.15286834 -.00000452  00000+0 -13309-2 0  9997
2 51642  87.8774  66.5671 0002263  97.0642 263.0743 13.10370972189391
ONEWEB-0451             
1 51643U 22012X   26016.03276626  .00000042  00000+0  76176-4 0  9999
2 51643  87.9092  36.0723 0001924  90.5389 269.5964 13.17650092193623
ONEWEB-0452             
1 51644U 22012Y   26016.03108166  .00000045  00000+0  82036-4 0  9998
2 51644  87.9083  36.1242 0002028  85.0378 275.0985 13.17648947193636
ONEWEB-0456             
1 51646U 22012AA  26016.16282109 -.00000636  00000+0 -18574-2 0  9996
2 51646  87.8787  66.5382 0001621  96.4272 263.7040 13.10373669189435
ONEWEB-0457             
1 51647U 22012AB  26016.13959885  .00000195  00000+0  52310-3 0  9991
2 51647  87.8768  66.5839 0002144 111.0406 249.0951 13.10370406189430
