[{"OBJECT_NAME":"ONEWEB-0431","OBJECT_ID":"2022-012J","EPOCH":"2026-01-16T04:22:57.748512","MEAN_MOTION":13.10376645,"ECCENTRICITY":0.00012669,"INCLINATION":87.8785,"RA_OF_ASC_NODE":66.5597,"ARG_OF_PERICENTER":114.2893,"MEAN_ANOMALY":245.8367,"EPHEMERIS_TYPE":0,"CLASSIFICATION_TYPE":"U","NORAD_CAT_ID":51630,"ELEMENT_SET_NO":999,"REV_AT_EPOCH":18943,"BSTAR":0.00057390289,"MEAN_MOTION_DOT":2.13e-6,"MEAN_MOTION_DDOT":0},{"OBJECT_NAME":"ONEWEB-0434","OBJECT_ID":"2022-012K","EPOCH":"2026-01-16T03:49:53.356512","MEAN_MOTION":13.10372533,"ECCENTRICITY":0.00024343,"INCLINATION":87.8767,"RA_OF_ASC_NODE":66.5973,"ARG_OF_PERICENTER":94.1537,"MEAN_ANOMALY":265.9869,"EPHEMERIS_TYPE":0,"CLASSIFICATION_TYPE":"U","NORAD_CAT_ID":51631,"ELEMENT_SET_NO":999,"REV_AT_EPOCH":18941,"BSTAR":-0.0018537167,"MEAN_MOTION_DOT":-6.34e-6,"MEAN_MOTION_DDOT":0},{"OBJECT_NAME":"ONEWEB-0435","OBJECT_ID":"2022-012L","EPOCH":"2026-01-16T04:01:38.338176","MEAN_MOTION":13.10374742,"ECCENTRICITY":0.00015226,"INCLINATION":87.8774,"RA_OF_ASC_NODE":66.586,"ARG_OF_PERICENTER":88.7752,"MEAN_ANOMALY":271.3549,"EPHEMERIS_TYPE":0,"CLASSIFICATION_TYPE":"U","NORAD_CAT_ID":51632,"ELEMENT_SET_NO":999,"REV_AT_EPOCH":18940,"BSTAR":-0.0015049822,"MEAN_MOTION_DOT":-5.13e-6,"MEAN_MOTION_DDOT":0},{"OBJECT_NAME":"ONEWEB-0436","OBJECT_ID":"2022-012M","EPOCH":"2026-01-16T00:52:01.962912","MEAN_MOTION":13.17650686,"ECCENTRICITY":0.00015894,"INCLINATION":87.9093,"RA_OF_ASC_NODE":36.0764,"ARG_OF_PERICENTER":87.6445,"MEAN_ANOMALY":272.4869,"EPHEMERIS_TYPE":0,"CLASSIFICATION_TYPE":"U","NORAD_CAT_ID":51633,"ELEMENT_SET_NO":999,"REV_AT_EPOCH":19364,"BSTAR":0.00011209587,"MEAN_MOTION_DOT":5.6e-7,"MEAN_MOTION_DDOT":0},{"OBJECT_NAME":"ONEWEB-0438","OBJECT_ID":"2022-012N","EPOCH":"2026-01-16T03:37:44.498208","MEAN_MOTION":13.10371156,"ECCENTRICITY":0.0002008,"INCLINATION":87.8767,"RA_OF_ASC_NODE":66.5902,"ARG_OF_PERICENTER":101.4115,"MEAN_ANOMALY":258.7238,"EPHEMERIS_TYPE":0,"CLASSIFICATION_TYPE":"U","NORAD_CAT_ID":51634,"ELEMENT_SET_NO":999,"REV_AT_EPOCH":18943,"BSTAR":-0.0010367919,"MEAN_MOTION_DOT":-3.49e-6,"MEAN_MOTION_DDOT":0},{"OBJECT_NAME":"ONEWEB-0439","OBJECT_ID":"2022-012P","EPOCH":"2026-01-16T03:42:31.080096","MEAN_MOTION":13.10371298,"ECCENTRICITY":0.0001821,"INCLINATION":87.8771,"RA_OF_ASC_NODE":66.5789,"ARG_OF_PERICENTER":96.7593,"MEAN_ANOMALY":263.3742,"EPHEMERIS_TYPE":0,"CLASSIFICATION_TYPE":"U","NORAD_CAT_ID":51635,"ELEMENT_SET_NO":999,"REV_AT_EPOCH":18941,"BSTAR":-0.0013878611,"MEAN_MOTION_DOT":-4.72e-6,"MEAN_MOTION_DDOT":0},{"OBJECT_NAME":"ONEWEB-0442","OBJECT_ID":"2022-012Q","EPOCH":"2026-01-16T07:58:28.753536","MEAN_MOTION":13.17656352,"ECCENTRICITY":0.00023791,"INCLINATION":87.9081,"RA_OF_ASC_NODE":36.062,"ARG_OF_PERICENTER":99.7832,"MEAN_ANOMALY":260.3569,"EPHEMERIS_TYPE":0,"CLASSIFICATION_TYPE":"U","NORAD_CAT_ID":51636,"ELEMENT_SET_NO":999,"REV_AT_EPOCH":19367,"BSTAR":-0.00013722327,"MEAN_MOTION_DOT":-4.0e-7,"MEAN_MOTION_DDOT":0},{"OBJECT_NAME":"ONEWEB-0443","OBJECT_ID":"2022-012R","EPOCH":"2026-01-16T06:37:05.647584","MEAN_MOTION":13.1765011,"ECCENTRICITY":0.00020564,"INCLINATION":87.908,"RA_OF_ASC_NODE":36.0769,"ARG_OF_PERICENTER":86.4512,"MEAN_ANOMALY":273.6855,"EPHEMERIS_TYPE":0,"CLASSIFICATION_TYPE":"U","NORAD_CAT_ID":51637,"ELEMENT_SET_NO":999,"REV_AT_EPOCH":19371,"BSTAR":0.00013743895,"MEAN_MOTION_DOT":6.6e-7,"MEAN_MOTION_DDOT":0},{"OBJECT_NAME":"ONEWEB-0444","OBJECT_ID":"2022-012S","EPOCH":"2026-01-16T03:28:11.163360","MEAN_MOTION":13.10370655,"ECCENTRICITY":0.00017839,"INCLINATION":87.877,"RA_OF_ASC_NODE":66.579,"ARG_OF_PERICENTER":96.7987,"MEAN_ANOMALY":263.3343,"EPHEMERIS_TYPE":0,"CLASSIFICATION_TYPE":"U","NORAD_CAT_ID":51638,"ELEMENT_SET_NO":999,"REV_AT_EPOCH":18942,"BSTAR":-0.00033438526,"MEAN_MOTION_DOT":-1.04e-6,"MEAN_MOTION_DDOT":0},{"OBJECT_NAME":"ONEWEB-0445","OBJECT_ID":"2022-012T","EPOCH":"2026-01-16T03:59:15.459360","MEAN_MOTION":13.10364577,"ECCENTRICITY":0.00019865,"INCLINATION":87.8789,"RA_OF_ASC_NODE":66.5481,"ARG_OF_PERICENTER":107.1668,"MEAN_ANOMALY":252.9677,"EPHEMERIS_TYPE":0,"CLASSIFICATION_TYPE":"U","NORAD_CAT_ID":51639,"ELEMENT_SET_NO":999,"REV_AT_EPOCH":18943,"BSTAR":-0.0045164079,"MEAN_MOTION_DOT":-1.563e-5,"MEAN_MOTION_DDOT":0},{"OBJECT_NAME":"ONEWEB-0446","OBJECT_ID":"2022-012U","EPOCH":"2026-01-16T05:15:44.973792","MEAN_MOTION":13.10370271,"ECCENTRICITY":0.00017866,"INCLINATION":87.8769,"RA_OF_ASC_NODE":66.5806,"ARG_OF_PERICENTER":103.2472,"MEAN_ANOMALY":256.8855,"EPHEMERIS_TYPE":0,"CLASSIFICATION_TYPE":"U","NORAD_CAT_ID":51640,"ELEMENT_SET_NO":999,"REV_AT_EPOCH":18942,"BSTAR":9.585337e-5,"MEAN_MOTION_DOT":4.6e-7,"MEAN_MOTION_DDOT":0},{"OBJECT_NAME":"ONEWEB-0448","OBJECT_ID":"2022-012V","EPOCH":"2026-01-16T03:32:57.498144","MEAN_MOTION":13.10370802,"ECCENTRICITY":0.0001787,"INCLINATION":87.877,"RA_OF_ASC_NODE":66.5943,"ARG_OF_PERICENTER":98.3278,"MEAN_ANOMALY":261.8052,"EPHEMERIS_TYPE":0,"CLASSIFICATION_TYPE":"U","NORAD_CAT_ID":51641,"ELEMENT_SET_NO":999,"REV_AT_EPOCH":18938,"BSTAR":-0.00097165175,"MEAN_MOTION_DOT":-3.26e-6,"MEAN_MOTION_DDOT":0},{"OBJECT_NAME":"ONEWEB-0449","OBJECT_ID":"2022-012W","EPOCH":"2026-01-16T03:40:07.824576","MEAN_MOTION":13.10370972,"ECCENTRICITY":0.00022637,"INCLINATION":87.8774,"RA_OF_ASC_NODE":66.5671,"ARG_OF_PERICENTER":97.0642,"MEAN_ANOMALY":263.0743,"EPHEMERIS_TYPE":0,"CLASSIFICATION_TYPE":"U","NORAD_CAT_ID":51642,"ELEMENT_SET_NO":999,"REV_AT_EPOCH":18939,"BSTAR":-0.0013309182,"MEAN_MOTION_DOT":-4.52e-6,"MEAN_MOTION_DDOT":0},{"OBJECT_NAME":"ONEWEB-0451","OBJECT_ID":"2022-012X","EPOCH":"2026-01-16T00:47:11.004864","MEAN_MOTION":13.17650092,"ECCENTRICITY":0.00019247,"INCLINATION":87.9092,"RA_OF_ASC_NODE":36.0723,"ARG_OF_PERICENTER":90.5389,"MEAN_ANOMALY":269.5964,"EPHEMERIS_TYPE":0,"CLASSIFICATION_TYPE":"U","NORAD_CAT_ID":51643,"ELEMENT_SET_NO":999,"REV_AT_EPOCH":19362,"BSTAR":7.6176333e-5,"MEAN_MOTION_DOT":4.2e-7,"MEAN_MOTION_DDOT":0},{"OBJECT_NAME":"ONEWEB-0452","OBJECT_ID":"2022-012Y","EPOCH":"2026-01-16T00:44:45.455424","MEAN_MOTION":13.17648947,"ECCENTRICITY":0.0002028,"INCLINATION":87.9083,"RA_OF_ASC_NODE":36.1242,"ARG_OF_PERICENTER":85.0378,"MEAN_ANOMALY":275.0985,"EPHEMERIS_TYPE":0,"CLASSIFICATION_TYPE":"U","NORAD_CAT_ID":51644,"ELEMENT_SET_NO":999,"REV_AT_EPOCH":19363,"BSTAR":8.2036444e-5,"MEAN_MOTION_DOT":4.5e-7,"MEAN_MOTION_DDOT":0},{"OBJECT_NAME":"ONEWEB-0456","OBJECT_ID":"2022-012AA","EPOCH":"2026-01-16T03:54:27.742176","MEAN_MOTION":13.10373669,"ECCENTRICITY":0.0001621,"INCLINATION":87.8787,"RA_OF_ASC_NODE":66.5382,"ARG_OF_PERICENTER":96.4272,"MEAN_ANOMALY":263.704,"EPHEMERIS_TYPE":0,"CLASSIFICATION_TYPE":"U","NORAD_CAT_ID":51646,"ELEMENT_SET_NO":999,"REV_AT_EPOCH":18943,"BSTAR":-0.0018574124,"MEAN_MOTION_DOT":-6.36e-6,"MEAN_MOTION_DDOT":0},{"OBJECT_NAME":"ONEWEB-0457","OBJECT_ID":"2022-012AB","EPOCH":"2026-01-16T03:21:01.340640","MEAN_MOTION":13.10370406,"ECCENTRICITY":0.00021448,"INCLINATION":87.8768,"RA_OF_ASC_NODE":66.5839,"ARG_OF_PERICENTER":111.0406,"MEAN_ANOMALY":249.0951,"EPHEMERIS_TYPE":0,"CLASSIFICATION_TYPE":"U","NORAD_CAT_ID":51647,"ELEMENT_SET_NO":999,"REV_AT_EPOCH":18943,"BSTAR":0.00052310171,"MEAN_MOTION_DOT":1.95e-6,"MEAN_MOTION_DDOT":0}]
